[{"CCSDS_OMM_VERS":"2.0","COMMENT":"GENERATED VIA SPACE-TRACK.ORG API","CREATION_DATE":"2020-12-03T20:15:29","ORIGINATOR":"18 SPCS","OBJECT_NAME":"STARLINK-1555","OBJECT_ID":"2020-055F","CENTER_NAME":"EARTH","REF_FRAME":"TEME","TIME_SYSTEM":"UTC","MEAN_ELEMENT_THEORY":"SGP4","EPOCH":"2020-12-02T21:12:04.781952","MEAN_MOTION":"15.05580129","ECCENTRICITY":"0.00016500","INCLINATION":"53.0014","RA_OF_ASC_NODE":"118.4297","ARG_OF_PERICENTER":"92.0651","MEAN_ANOMALY":"268.0526","EPHEMERIS_TYPE":"0","CLASSIFICATION_TYPE":"U","NORAD_CAT_ID":"46032","ELEMENT_SET_NO":"999","REV_AT_EPOCH":"1908","BSTAR":"0.00010753000000","MEAN_MOTION_DOT":"0.00001288","MEAN_MOTION_DDOT":"0.0000000000000","SEMIMAJOR_AXIS":"6927.862","PERIOD":"95.644","APOAPSIS":"550.870","PERIAPSIS":"548.584","OBJECT_TYPE":"PAYLOAD","RCS_SIZE":"LARGE","COUNTRY_CODE":"US","LAUNCH_DATE":"2020-08-07","SITE":"AFETR","DECAY_DATE":null,"FILE":"2896876","GP_ID":"166818740","TLE_LINE0":"0 STARLINK-1555","TLE_LINE1":"1 46032U 20055F   20337.88338868  .00001288  00000-0  10753-3 0  9992","TLE_LINE2":"2 46032  53.0014 118.4297 0001650  92.0651 268.0526 15.05580129 19080"},{"CCSDS_OMM_VERS":"2.0","COMMENT":"GENERATED VIA SPACE-TRACK.ORG API","CREATION_DATE":"2020-12-03T20:15:29","ORIGINATOR":"18 SPCS","OBJECT_NAME":"STARLINK-1582","OBJECT_ID":"2020-055S","CENTER_NAME":"EARTH","REF_FRAME":"TEME","TIME_SYSTEM":"UTC","MEAN_ELEMENT_THEORY":"SGP4","EPOCH":"2020-12-02T21:16:51.301632","MEAN_MOTION":"15.05582509","ECCENTRICITY":"0.00015820","INCLINATION":"53.0006","RA_OF_ASC_NODE":"118.4150","ARG_OF_PERICENTER":"86.2086","MEAN_ANOMALY":"273.9082","EPHEMERIS_TYPE":"0","CLASSIFICATION_TYPE":"U","NORAD_CAT_ID":"46043","ELEMENT_SET_NO":"999","REV_AT_EPOCH":"1907","BSTAR":"0.00002054700000","MEAN_MOTION_DOT":"0.00000020","MEAN_MOTION_DDOT":"0.0000000000000","SEMIMAJOR_AXIS":"6927.855","PERIOD":"95.644","APOAPSIS":"550.816","PERIAPSIS":"548.624","OBJECT_TYPE":"PAYLOAD","RCS_SIZE":"LARGE","COUNTRY_CODE":"US","LAUNCH_DATE":"2020-08-07","SITE":"AFETR","DECAY_DATE":null,"FILE":"2896876","GP_ID":"166818000","TLE_LINE0":"0 STARLINK-1582","TLE_LINE1":"1 46043U 20055S   20337.88670488  .00000020  00000-0  20547-4 0  9997","TLE_LINE2":"2 46043  53.0006 118.4150 0001582  86.2086 273.9082 15.05582509 19077"},{"CCSDS_OMM_VERS":"2.0","COMMENT":"GENERATED VIA SPACE-TRACK.ORG API","CREATION_DATE":"2020-12-03T06:56:09","ORIGINATOR":"18 SPCS","OBJECT_NAME":"STARLINK-1543","OBJECT_ID":"2020-055AC","CENTER_NAME":"EARTH","REF_FRAME":"TEME","TIME_SYSTEM":"UTC","MEAN_ELEMENT_THEORY":"SGP4","EPOCH":"2020-12-02T21:20:58.835904","MEAN_MOTION":"15.06398272","ECCENTRICITY":"0.00039020","INCLINATION":"53.0080","RA_OF_ASC_NODE":"108.3835","ARG_OF_PERICENTER":"139.5957","MEAN_ANOMALY":"220.5322","EPHEMERIS_TYPE":"0","CLASSIFICATION_TYPE":"U","NORAD_CAT_ID":"46053","ELEMENT_SET_NO":"999","REV_AT_EPOCH":"1870","BSTAR":"0.00016475000000","MEAN_MOTION_DOT":"0.00002172","MEAN_MOTION_DDOT":"0.0000000000000","SEMIMAJOR_AXIS":"6925.353","PERIOD":"95.592","APOAPSIS":"549.921","PERIAPSIS":"544.516","OBJECT_TYPE":"PAYLOAD","RCS_SIZE":"LARGE","COUNTRY_CODE":"US","LAUNCH_DATE":"2020-08-07","SITE":"AFETR","DECAY_DATE":null,"FILE":"2896547","GP_ID":"166790498","TLE_LINE0":"0 STARLINK-1543","TLE_LINE1":"1 46053U 20055AC  20337.88956986  .00002172  00000-0  16475-3 0  9992","TLE_LINE2":"2 46053  53.0080 108.3835 0003902 139.5957 220.5322 15.06398272 18702"},{"CCSDS_OMM_VERS":"2.0","COMMENT":"GENERATED VIA SPACE-TRACK.ORG API","CREATION_DATE":"2020-12-03T20:15:29","ORIGINATOR":"18 SPCS","OBJECT_NAME":"STARLINK-1543","OBJECT_ID":"2020-055AC","CENTER_NAME":"EARTH","REF_FRAME":"TEME","TIME_SYSTEM":"UTC","MEAN_ELEMENT_THEORY":"SGP4","EPOCH":"2020-12-02T21:20:58.835904","MEAN_MOTION":"15.06398272","ECCENTRICITY":"0.00039020","INCLINATION":"53.0080","RA_OF_ASC_NODE":"108.3835","ARG_OF_PERICENTER":"139.5957","MEAN_ANOMALY":"220.5322","EPHEMERIS_TYPE":"0","CLASSIFICATION_TYPE":"U","NORAD_CAT_ID":"46053","ELEMENT_SET_NO":"999","REV_AT_EPOCH":"1922","BSTAR":"0.00016475000000","MEAN_MOTION_DOT":"0.00002172","MEAN_MOTION_DDOT":"0.0000000000000","SEMIMAJOR_AXIS":"6925.353","PERIOD":"95.592","APOAPSIS":"549.921","PERIAPSIS":"544.516","OBJECT_TYPE":"PAYLOAD","RCS_SIZE":"LARGE","COUNTRY_CODE":"US","LAUNCH_DATE":"2020-08-07","SITE":"AFETR","DECAY_DATE":null,"FILE":"2896876","GP_ID":"166819384","TLE_LINE0":"0 STARLINK-1543","TLE_LINE1":"1 46053U 20055AC  20337.88956986  .00002172  00000-0  16475-3 0  9992","TLE_LINE2":"2 46053  53.0080 108.3835 0003902 139.5957 220.5322 15.06398272 19220"},{"CCSDS_OMM_VERS":"2.0","COMMENT":"GENERATED VIA SPACE-TRACK.ORG API","CREATION_DATE":"2020-12-03T20:15:29","ORIGINATOR":"18 SPCS","OBJECT_NAME":"STARLINK-1522","OBJECT_ID":"2020-055A","CENTER_NAME":"EARTH","REF_FRAME":"TEME","TIME_SYSTEM":"UTC","MEAN_ELEMENT_THEORY":"SGP4","EPOCH":"2020-12-02T21:21:38.351808","MEAN_MOTION":"15.05579622","ECCENTRICITY":"0.00020190","INCLINATION":"53.0014","RA_OF_ASC_NODE":"118.4068","ARG_OF_PERICENTER":"99.6484","MEAN_ANOMALY":"260.4732","EPHEMERIS_TYPE":"0","CLASSIFICATION_TYPE":"U","NORAD_CAT_ID":"46027","ELEMENT_SET_NO":"999","REV_AT_EPOCH":"1907","BSTAR":"-0.00003269100000","MEAN_MOTION_DOT":"-0.00000756","MEAN_MOTION_DDOT":"0.0000000000000","SEMIMAJOR_AXIS":"6927.864","PERIOD":"95.644","APOAPSIS":"551.127","PERIAPSIS":"548.330","OBJECT_TYPE":"PAYLOAD","RCS_SIZE":"LARGE","COUNTRY_CODE":"US","LAUNCH_DATE":"2020-08-07","SITE":"AFETR","DECAY_DATE":null,"FILE":"2896876","GP_ID":"166817998","TLE_LINE0":"0 STARLINK-1522","TLE_LINE1":"1 46027U 20055A   20337.89002722 -.00000756  00000-0 -32691-4 0  9991","TLE_LINE2":"2 46027  53.0014 118.4068 0002019  99.6484 260.4732 15.05579622 19077"},{"CCSDS_OMM_VERS":"2.0","COMMENT":"GENERATED VIA SPACE-TRACK.ORG API","CREATION_DATE":"2020-12-03T06:56:09","ORIGINATOR":"18 SPCS","OBJECT_NAME":"STARLINK-1581","OBJECT_ID":"2020-055R","CENTER_NAME":"EARTH","REF_FRAME":"TEME","TIME_SYSTEM":"UTC","MEAN_ELEMENT_THEORY":"SGP4","EPOCH":"2020-12-02T21:26:24.971712","MEAN_MOTION":"15.05580540","ECCENTRICITY":"0.00017010","INCLINATION":"53.0123","RA_OF_ASC_NODE":"118.3299","ARG_OF_PERICENTER":"76.6137","MEAN_ANOMALY":"283.5041","EPHEMERIS_TYPE":"0","CLASSIFICATION_TYPE":"U","NORAD_CAT_ID":"46042","ELEMENT_SET_NO":"999","REV_AT_EPOCH":"1857","BSTAR":"-0.00000001172500","MEAN_MOTION_DOT":"-0.00000280","MEAN_MOTION_DDOT":"0.0000000000000","SEMIMAJOR_AXIS":"6927.861","PERIOD":"95.644","APOAPSIS":"550.904","PERIAPSIS":"548.547","OBJECT_TYPE":"PAYLOAD","RCS_SIZE":"LARGE","COUNTRY_CODE":"US","LAUNCH_DATE":"2020-08-07","SITE":"AFETR","DECAY_DATE":null,"FILE":"2896557","GP_ID":"166791031","TLE_LINE0":"0 STARLINK-1581","TLE_LINE1":"1 46042U 20055R   20337.89334458 -.00000280  00000-0 -11725-7 0  9992","TLE_LINE2":"2 46042  53.0123 118.3299 0001701  76.6137 283.5041 15.05580540 18571"},{"CCSDS_OMM_VERS":"2.0","COMMENT":"GENERATED VIA SPACE-TRACK.ORG API","CREATION_DATE":"2020-12-03T20:15:29","ORIGINATOR":"18 SPCS","OBJECT_NAME":"STARLINK-1581","OBJECT_ID":"2020-055R","CENTER_NAME":"EARTH","REF_FRAME":"TEME","TIME_SYSTEM":"UTC","MEAN_ELEMENT_THEORY":"SGP4","EPOCH":"2020-12-02T21:26:24.971712","MEAN_MOTION":"15.05580540","ECCENTRICITY":"0.00017010","INCLINATION":"53.0123","RA_OF_ASC_NODE":"118.3299","ARG_OF_PERICENTER":"76.6137","MEAN_ANOMALY":"283.5041","EPHEMERIS_TYPE":"0","CLASSIFICATION_TYPE":"U","NORAD_CAT_ID":"46042","ELEMENT_SET_NO":"999","REV_AT_EPOCH":"1904","BSTAR":"-0.00000001172500","MEAN_MOTION_DOT":"-0.00000280","MEAN_MOTION_DDOT":"0.0000000000000","SEMIMAJOR_AXIS":"6927.861","PERIOD":"95.644","APOAPSIS":"550.904","PERIAPSIS":"548.547","OBJECT_TYPE":"PAYLOAD","RCS_SIZE":"LARGE","COUNTRY_CODE":"US","LAUNCH_DATE":"2020-08-07","SITE":"AFETR","DECAY_DATE":null,"FILE":"2896876","GP_ID":"166817244","TLE_LINE0":"0 STARLINK-1581","TLE_LINE1":"1 46042U 20055R   20337.89334458 -.00000280  00000-0 -11725-7 0  9992","TLE_LINE2":"2 46042  53.0123 118.3299 0001701  76.6137 283.5041 15.05580540 19044"},{"CCSDS_OMM_VERS":"2.0","COMMENT":"GENERATED VIA SPACE-TRACK.ORG API","CREATION_DATE":"2020-12-03T06:56:09","ORIGINATOR":"18 SPCS","OBJECT_NAME":"STARLINK-1572","OBJECT_ID":"2020-055AK","CENTER_NAME":"EARTH","REF_FRAME":"TEME","TIME_SYSTEM":"UTC","MEAN_ELEMENT_THEORY":"SGP4","EPOCH":"2020-12-02T22:03:28.543968","MEAN_MOTION":"15.06455231","ECCENTRICITY":"0.00014290","INCLINATION":"53.0227","RA_OF_ASC_NODE":"108.2453","ARG_OF_PERICENTER":"65.2455","MEAN_ANOMALY":"294.8682","EPHEMERIS_TYPE":"0","CLASSIFICATION_TYPE":"U","NORAD_CAT_ID":"46060","ELEMENT_SET_NO":"999","REV_AT_EPOCH":"1868","BSTAR":"-0.00094761000000","MEAN_MOTION_DOT":"-0.00014389","MEAN_MOTION_DDOT":"0.0000000000000","SEMIMAJOR_AXIS":"6925.179","PERIOD":"95.588","APOAPSIS":"548.033","PERIAPSIS":"546.054","OBJECT_TYPE":"PAYLOAD","RCS_SIZE":"LARGE","COUNTRY_CODE":"US","LAUNCH_DATE":"2020-08-07","SITE":"AFETR","DECAY_DATE":null,"FILE":"2896556","GP_ID":"166791026","TLE_LINE0":"0 STARLINK-1572","TLE_LINE1":"1 46060U 20055AK  20337.91908037 -.00014389  00000-0 -94761-3 0  9997","TLE_LINE2":"2 46060  53.0227 108.2453 0001429  65.2455 294.8682 15.06455231 18687"}]